First least square run :: 
46099.3630449  0.504055455468  1.03264003011e-11  0.66  49.8557094746  
Convergence OK -> poursuite du programme
 
 Sommes des résidus par camera : 
              camera               sigma                   s                   n                 Sum        Sum expected                  s'
              FRMP03      0.595900932489      0.170240853579                  11       41.0406148723       6.26930201626       1.45952561398
              FRMP01       1.09289949533       0.25060444894                  10       8.81509460222       6.89856130976      0.590998821889
 Sum Expected Total :: 13.167863326
 
 Sommes des résidus par camera 2 : 
              camera               sigma                   s                   n                 Sum        Sum expected                  s'
              FRMP03      0.595900932489       1.46942062259                  11       1.75837438363       1.14730524534        1.1572143003
              FRMP01       1.09289949533      0.641936287573                  10       1.63083842014       3.02245636112                   0
 Sum Expected Total :: 4.16976160646
 
Parametre  de la meilleure solution par moindre carré :: 
 V  = 46526.8019811 m/s
 A  = 0.606233921289 m²/kg
 B  = 1.56763552795e-11 m²/J
 mu = 0.66
 
S_min : 3.38921280377
 
 
 Estimation Parametre par Moyenne pondérée (si cette estimation est très différente de la précédente, cela peut être le signe d'un problème) :: 
 V  = 46487.058844 m/s
 A  = 0.512950477635 m²/kg
 B  = 5.05426570776e-09 m²/J
 
 Parametre Maria :: 
 gamma = 40.0444231931°
 Alpha = 4351.55522627
 Beta  = 0.00951612614286
 
Final Mass : 97.2399445963 %
 
         rho(Kg/m³)               Re(m)              Me(Kg)               Rf(m)              Mf(Kg)
                1500   0.000824764142093   3.52508165568e-06   0.000817105258271   3.42778744896e-06
                2500   0.000494858485256   1.26902939605e-06   0.000490263154963   1.23400348163e-06
                3500   0.000353470346611   6.47463977575e-07    0.00035018796783   6.29593613075e-07
                4500   0.000274921380698    3.9167573952e-07   0.000272368419424   3.80865272107e-07
                5500   0.000224935675116   2.62196156208e-07   0.000222846888619    2.5495939703e-07
                6500   0.000190330186637   1.87726242019e-07   0.000188562751909   1.82544893732e-07
 
Matrix of Covariance : 
    |                   Ve |                    A |                    B | 
Ve  |        431607.817573 |        156.957894524 |   -4.73611187915e-07 | 
A   |        156.957894524 |      0.0759421538114 |   -7.28440314949e-10 | 
B   |   -4.73611187915e-07 |   -7.28440314949e-10 |    3.51641556542e-17 | 
 
 
 Time shift :: 
FRMP03 : -0.00320883970242 s
FRMP01 : 0.00320883970242 s
 
 
 Transposed Jacobian Matrix :: 
       |             Ve(m/s) |                    A |                    B | 
dx1(m) |       2.76146002623 |    0.000120934380066 |    1.68054899672e-15 | 
dx2(m) |      -1.66944158046 |    1.85640938045e-05 |    2.76587444006e-15 | 
dx3(m) |      -1.93295452665 |    2.69983893706e-05 |    2.43974742643e-13 | 
dx4(m) |       1.00500548937 |   -0.000199611925405 |    5.76963398551e-14 | 
 
 Propagation des Variances :: 
        |              Ve(m/s) |                    A |                    B | 
Ve(m/s) |        72159.9331805 |       0.696130889064 |   -1.93476006376e-09 | 
A       |       0.696130889064 |    4.65345922141e-05 |    1.83001335911e-14 | 
B       |   -1.93476006376e-09 |    1.83001335911e-14 |    1.09429098136e-22 | 
 
 Variances Totales :: 
        |              Ve(m/s) |                    A |                    B | 
Ve(m/s) |        503767.750754 |        157.654025413 |   -4.75545947979e-07 | 
A       |        157.654025413 |      0.0759886884036 |   -7.28422014815e-10 | 
B       |   -4.75545947979e-07 |   -7.28422014815e-10 |    3.51642650833e-17 | 
 
sigma Ve : 709.765983092 m/s
sigma A  : 0.275660458542 m^2/Kg
sigma B  : 5.92994646546e-09 m^2/J
 
sigma Me (relatif) : 136.412916959 %
sigma Mf (relatif) : 1067.4868847 %
 
A/B : 38671.866673 MJ/Kg
sigma A/B : 14628544.7531 MJ/Kg
 
    Remarque : A/B decrit la solidité du bolide. Il doit être entre 50 et 8000 MJ/Kg 
 
 
 
 
------------------------------------------------------------------------ 
------------------------------------------------------------------------ 
------------------------------------------------------------------------ 
 
 
  ORBITE :: 
Perifocal Distance              :: 0.967003103077 AU
Eccentricity                    :: 0.759215461907
Inclination                     :: 78.401752434 °
Longitude of the ascending node :: 279.893884449 °
Argument of periapsis           :: 164.061624617 °
Mean anomaly at epoch           :: 1.19930810702 °
Epoch                           :: 2019-12-30T05:13:07.225
Semi-major axe                  :: 4.0160514904 AU
 
Moon near encounter             :: 409290.696734km   ( 235.576549288 moon radius )
Tisserand_J                     :: 1.52544586937
Tisserand_S                     :: 2.60456798978
Tisserand_U                     :: 5.00799833001
Tisserand_N                     :: 7.71737594283
 
 
  Transposed Jacobian Matrix  :: 
        |        Per dist(AU) |                  ecc |                  Inc |                 Long |                  Arg |              Mean an |                Epoch |                    a | 
dx1(km) |    0.00886906408278 |      0.0547531057198 |      -0.981711291441 |   -1.78959431613e-05 |        5.39803630001 |      -0.726428761761 |        159.682080507 |        1.22968658035 |  
dx2(km) |   -0.00538505720228 |      0.0871459495897 |       -1.65113600901 |   -2.77445187227e-05 |       -1.91174023673 |      -0.517877166138 |       -55.2570991516 |        2.24291024076 |  
dx3(km) |     -0.013184968432 |     -0.0499400696431 |       0.961475646854 |    2.48840814757e-05 |       -5.98141497139 |        1.16285138113 |       -17.5974328518 |      -0.735221078178 |  
dx4(km) |    0.00514531388375 |     -0.0855936782054 |         1.6646294519 |    3.56080037496e-05 |        2.29440793201 |        0.41195964603 |       -35.8267199993 |       -1.03745681584 |  
V(km/s) |   -0.00113831941069 |      0.0609546043128 |       0.633543966901 |    -0.00040493465507 |      -0.193556923285 |      -0.437300592895 |         17640.229249 |        1.00938061907 |  
 
 Variances :: 
             |        Per dist(AU) |                  ecc |                  Inc |                 Long |                  Arg |              Mean an |             Epoch(s) |                    a | 
Per dist(AU) |   1.96964095484e-06 |   -3.32169675881e-05 |   -0.000392985248879 |     2.3137663118e-07 |    0.000772790257535 |    0.000176902912381 |       -10.1053143805 |    -0.00054780149018 |  
ecc          |  -3.32169675881e-05 |     0.00187969235482 |      0.0193077028586 |   -1.24374666429e-05 |    -0.00502780055744 |     -0.0135707354196 |        541.694194387 |      0.0311493683769 |  
Inc          |  -0.000392985248879 |      0.0193077028586 |        0.20490675869 |   -0.000129180574448 |     -0.0774225158096 |      -0.137032067207 |        5629.76610281 |       0.319307444159 |  
Long         |    2.3137663118e-07 |   -1.24374666429e-05 |   -0.000129180574448 |    8.26051400841e-08 |    3.90564454982e-05 |    8.92706495987e-05 |       -3.59849031453 |    -0.00020596694095 |  
Arg          |   0.000772790257535 |    -0.00502780055744 |     -0.0774225158096 |    3.90564454982e-05 |       0.353300054339 |     0.00553056990791 |       -1714.56173666 |     -0.0819682912769 |  
Mean an      |   0.000176902912381 |     -0.0135707354196 |      -0.137032067207 |    8.92706495987e-05 |     0.00553056990791 |       0.100921932124 |       -3886.65853762 |      -0.225016673705 |  
Epoch(s)     |      -10.1053143805 |        541.694194387 |        5629.76610281 |       -3.59849031453 |       -1714.56173666 |       -3886.65853762 |        156761402.839 |        8970.22966839 |  
a            |   -0.00054780149018 |      0.0311493683769 |       0.319307444159 |    -0.00020596694095 |     -0.0819682912769 |      -0.225016673705 |        8970.22966839 |        0.51632532534 |  
 
     Ecarts types :: 
Per dist(AU) :    0.00140343897439 
ecc          :     0.0433554189787 
Inc          :      0.452666277394 
Long         :   0.000287411099445 
Arg          :      0.594390489779 
Mean an      :      0.317682124337 
Epoch(s)     :       12520.4394028 
a            :      0.718557809324 
